[{"OBJECT_NAME":"STARLINK-31051","OBJECT_ID":"2024-002Q","EPOCH":"2026-03-09T16:24:40.663872","MEAN_MOTION":15.30202741,"ECCENTRICITY":0.0001004,"INCLINATION":53.1603,"RA_OF_ASC_NODE":230.0143,"ARG_OF_PERICENTER":85.212,"MEAN_ANOMALY":274.8996,"EPHEMERIS_TYPE":0,"CLASSIFICATION_TYPE":"U","NORAD_CAT_ID":58719,"ELEMENT_SET_NO":999,"REV_AT_EPOCH":12201,"BSTAR":-4.5609465e-5,"MEAN_MOTION_DOT":-1.71e-5,"MEAN_MOTION_DDOT":0},{"OBJECT_NAME":"TITAN 3C TRANSTAGE DEB","OBJECT_ID":"1965-082PT","EPOCH":"2026-03-09T13:23:41.116128","MEAN_MOTION":15.28908269,"ECCENTRICITY":0.00104371,"INCLINATION":32.0266,"RA_OF_ASC_NODE":255.1391,"ARG_OF_PERICENTER":172.8339,"MEAN_ANOMALY":187.2474,"EPHEMERIS_TYPE":0,"CLASSIFICATION_TYPE":"U","NORAD_CAT_ID":3462,"ELEMENT_SET_NO":999,"REV_AT_EPOCH":24824,"BSTAR":0.0004444037,"MEAN_MOTION_DOT":0.00012939,"MEAN_MOTION_DDOT":0}]
